[{"OBJECT_NAME":"STARLINK-30449","OBJECT_ID":"2023-146N","EPOCH":"2026-03-09T22:00:01.999584","MEAN_MOTION":15.06613428,"ECCENTRICITY":0.00015375,"INCLINATION":43.0004,"RA_OF_ASC_NODE":311.56,"ARG_OF_PERICENTER":279.873,"MEAN_ANOMALY":194.5239,"EPHEMERIS_TYPE":0,"CLASSIFICATION_TYPE":"U","NORAD_CAT_ID":57903,"ELEMENT_SET_NO":999,"REV_AT_EPOCH":578,"BSTAR":0.062378126,"MEAN_MOTION_DOT":0.01013373,"MEAN_MOTION_DDOT":0},{"OBJECT_NAME":"FLOCK 4H-25","OBJECT_ID":"2025-276BQ","EPOCH":"2026-03-09T18:21:52.055712","MEAN_MOTION":15.19480848,"ECCENTRICITY":8.716e-5,"INCLINATION":97.4262,"RA_OF_ASC_NODE":144.1192,"ARG_OF_PERICENTER":117.3208,"MEAN_ANOMALY":242.8115,"EPHEMERIS_TYPE":0,"CLASSIFICATION_TYPE":"U","NORAD_CAT_ID":66728,"ELEMENT_SET_NO":999,"REV_AT_EPOCH":1461,"BSTAR":0.00039445995,"MEAN_MOTION_DOT":8.305e-5,"MEAN_MOTION_DDOT":0}]
